OBJECT_NAME,OBJECT_ID,EPOCH,MEAN_MOTION,ECCENTRICITY,INCLINATION,RA_OF_ASC_NODE,ARG_OF_PERICENTER,MEAN_ANOMALY,EPHEMERIS_TYPE,CLASSIFICATION_TYPE,NORAD_CAT_ID,ELEMENT_SET_NO,REV_AT_EPOCH,BSTAR,MEAN_MOTION_DOT,MEAN_MOTION_DDOT
STARLINK-31575,2024-068S,2026-07-11T00:15:10.415808,15.27576178,.00020178,43.0081,54.5548,258.7450,101.3176,0,U,59471,999,12742,.28477109E-4,.521E-5,0
STARLINK-31610,2024-068U,2026-07-11T00:01:32.313216,15.27569058,.00025828,43.0104,57.9409,273.8436,86.2121,0,U,59473,999,12738,.67300386E-4,.1589E-4,0
STARLINK-31581,2024-068V,2026-07-11T00:01:04.241856,15.27575764,.00008719,43.0022,51.0097,273.0024,87.0728,0,U,59474,999,12746,.13595749E-4,.112E-5,0
STARLINK-31566,2024-068W,2026-07-11T00:07:04.182528,15.27574803,.00031016,43.0088,57.9643,246.9232,113.1293,0,U,59475,999,12738,.2839503E-5,-.185E-5,0
STARLINK-31515,2024-068X,2026-07-11T00:18:10.797408,15.27590791,.00011044,43.0052,58.0267,274.4181,85.6545,0,U,59476,999,12738,.10357844E-3,.259E-4,0
STARLINK-31531,2024-068Y,2026-07-11T11:58:17.278176,15.27617693,.00029841,43.0033,0.1543,285.7207,74.3315,0,U,59477,999,12808,.23554024E-3,.6232E-4,0
STARLINK-31753,2024-071A,2026-07-09T19:47:16.785312,15.27603028,.00010044,43.0028,10.0701,264.6950,95.3787,0,U,59484,999,12688,-.76880642E-4,-.2378E-4,0
STARLINK-31733,2024-071C,2026-07-11T11:52:47.422848,15.27577734,.00009846,43.0028,0.2471,275.4796,84.5943,0,U,59486,999,12714,.9216312E-5,-.8E-7,0
STARLINK-31657,2024-071D,2026-07-11T12:16:50.698560,15.27577596,.0001744,43.0062,0.3739,265.6557,94.4096,0,U,59487,999,12714,.11421175E-4,.52E-6,0
STARLINK-31754,2024-071E,2026-07-11T12:02:42.407808,15.27577403,.00015625,42.9994,8.0839,272.5219,87.5454,0,U,59488,999,12705,.29533839E-4,.551E-5,0
STARLINK-31638,2024-071F,2026-07-11T12:14:57.924096,15.27592237,.00026539,43.0019,0.3496,181.5970,178.4874,0,U,59489,999,12714,.58787363E-4,.1356E-4,0
STARLINK-31670,2024-071G,2026-07-10T19:27:01.675584,15.27573054,.00040065,42.9959,15.8472,24.2444,335.8596,0,U,59490,999,12690,.30743487E-3,.8206E-4,0
STARLINK-31712,2024-071H,2026-07-11T12:44:34.272672,15.27579301,.00012616,43.0017,11.7635,277.7175,82.3533,0,U,59491,999,12701,.47996693E-4,.1059E-4,0
STARLINK-31684,2024-071J,2026-07-11T12:08:15.799488,15.27574973,.00015226,43.0034,8.1116,268.7910,91.2768,0,U,59492,999,12705,-.21164511E-4,-.844E-5,0
STARLINK-31678,2024-071K,2026-07-11T12:19:21.999648,15.27575517,.00012098,43.0018,8.1700,288.0871,71.9849,0,U,59493,999,12587,.142171E-4,.129E-5,0
STARLINK-31744,2024-071L,2026-07-11T12:13:48.419616,15.27565157,.00016134,43.0017,8.1389,260.7641,99.3028,0,U,59494,999,12705,.16846631E-4,.201E-5,0
STARLINK-31719,2024-071M,2026-07-10T19:38:07.423872,15.27582347,.00018392,43.0049,4.6259,262.0854,97.9789,0,U,59495,999,12703,.35062625E-4,.703E-5,0
STARLINK-31728,2024-071N,2026-07-11T10:50:05.470080,15.27591936,.00001261,43.0003,0.7777,355.7768,4.3082,0,U,59496,999,12713,.57907977E-3,.15713E-3,0
STARLINK-31720,2024-071P,2026-07-11T18:00:23.201856,15.27575012,.00007876,43.0012,359.5866,267.0812,92.9950,0,U,59497,999,12717,.5079392E-5,-.122E-5,0
STARLINK-31731,2024-071Q,2026-07-11T11:50:56.255424,15.27577841,.00017366,43.0047,0.2379,282.9769,77.0889,0,U,59498,999,12714,-.6766693E-5,-.449E-5,0
STARLINK-31742,2024-071R,2026-07-11T12:03:53.468352,15.27572541,.00014122,43.0023,0.2971,233.4385,126.6336,0,U,59499,999,12714,-.38415105E-4,-.1319E-4,0
STARLINK-31512,2024-071S,2026-07-11T10:00:00.513504,15.27574743,.00011427,43.0058,320.8528,248.6502,111.4228,0,U,59500,999,12758,-.3383904E-5,-.355E-5,0
STARLINK-31458,2024-071T,2026-07-11T12:11:17.788992,15.27578523,.00009595,43.0050,0.3400,247.5311,112.5439,0,U,59501,999,12714,.18472952E-4,.246E-5,0
STARLINK-31357,2024-071U,2026-07-10T11:58:26.934240,15.27583354,.0001349,42.9987,6.5253,263.9171,96.1527,0,U,59502,999,12698,.18841E-3,.4927E-4,0
STARLINK-31508,2024-071V,2026-07-11T11:36:20.738304,15.27578337,.00012994,43.0013,1.0201,273.6711,86.3993,0,U,59503,999,12713,.49768142E-4,.1108E-4,0
STARLINK-31535,2024-071W,2026-07-11T09:16:36.087456,15.27575022,.00008423,43.0003,8.9327,257.5736,102.5021,0,U,59504,999,12703,.15792463E-4,.173E-5,0
STARLINK-31533,2024-071X,2026-07-11T11:47:27.026592,15.27574966,.00008471,43.0021,1.0781,250.3290,109.7471,0,U,59505,999,12713,-.139203E-5,-.3E-5,0
STARLINK-31524,2024-071Y,2026-07-11T11:11:46.493376,15.27583605,.00010502,42.9983,353.7729,229.1111,130.9649,0,U,59506,999,12721,.54891065E-4,.1249E-4,0
STARLINK-31635,2024-073A,2026-07-11T10:11:28.978944,15.27579409,.00010935,43.0005,338.8605,255.7656,104.3074,0,U,59511,999,12510,.25599071E-4,.442E-5,0
STARLINK-31650,2024-073B,2026-07-11T11:03:18.786240,15.27432494,.00007895,43.0019,339.1242,155.2372,204.8518,0,U,59512,999,12510,.11653851E-2,.31801E-3,0
STARLINK-31658,2024-073C,2026-07-10T09:02:56.522976,15.27579530,.00021891,43.0041,304.8765,273.3706,86.6895,0,U,59513,999,12539,.56953E-7,-.261E-5,0
STARLINK-31669,2024-073E,2026-07-11T10:26:17.361888,15.27577893,.00016778,43.0034,338.9355,282.9064,77.1600,0,U,59515,999,12510,.15180495E-4,.155E-5,0
STARLINK-31671,2024-073F,2026-07-11T11:18:05.583744,15.27579341,.00019903,43.0077,339.2026,279.0200,81.0426,0,U,59516,999,12510,.15274873E-4,.158E-5,0
STARLINK-31674,2024-073G,2026-07-11T09:08:46.214880,15.27561474,.00028256,43.0008,339.3831,168.3685,191.7232,0,U,59517,999,12509,.61213779E-4,.1421E-4,0
STARLINK-31679,2024-073J,2026-07-11T10:32:07.056384,15.27464079,.00010244,43.0056,328.5764,177.5399,182.5458,0,U,59519,999,12522,.83646209E-3,.22745E-3,0
STARLINK-31370,2024-073K,2026-07-11T11:14:23.611776,15.27578068,.00013276,43.0049,339.1827,250.8365,109.2343,0,U,59520,999,12510,.16532157E-4,.193E-5,0
STARLINK-31404,2024-073L,2026-07-11T11:29:11.333760,15.27585663,.00010922,42.9988,339.2535,197.9783,162.1030,0,U,59521,999,12510,.72628609E-4,.1737E-4,0
STARLINK-31453,2024-073M,2026-07-11T10:33:23.565312,15.27591094,.00015586,42.9993,321.3662,250.3604,109.7079,0,U,59522,999,12530,.40857387E-3,.11002E-3,0
STARLINK-31476,2024-073N,2026-07-11T11:08:50.337600,15.27577716,.00012432,43.0047,339.1541,268.0564,92.0145,0,U,59523,999,12510,.3505152E-5,-.166E-5,0
STARLINK-31538,2024-073Q,2026-07-11T10:31:49.754784,15.27576992,.00008897,43.0017,338.9595,253.3397,106.7357,0,U,59525,999,12510,-.4542911E-4,-.1512E-4,0
STARLINK-31564,2024-073R,2026-07-11T10:20:43.976256,15.27578597,.00015423,43.0036,338.9054,273.5484,86.5191,0,U,59526,999,12510,.23395265E-4,.382E-5,0
STARLINK-31452,2024-073S,2026-07-10T21:16:13.729728,15.27581116,.00008938,43.0020,342.5492,243.1950,116.8810,0,U,59527,999,12501,.32639386E-4,.636E-5,0
STARLINK-31513,2024-073U,2026-07-11T11:20:37.481856,15.27579016,.0001328,43.0034,335.7162,253.8126,106.2580,0,U,59529,999,12514,.43192353E-4,.927E-5,0
STARLINK-31392,2024-073V,2026-07-11T10:57:44.479584,15.27562095,.00012709,43.0017,339.0899,242.9570,117.1152,0,U,59530,999,12510,-.15397386E-3,-.4494E-4,0
STARLINK-31619,2024-073W,2026-07-11T10:37:23.962080,15.27575421,.00021992,43.0065,338.9916,286.9236,73.1375,0,U,59531,999,12622,-.34169563E-4,-.1203E-4,0
STARLINK-31509,2024-073Y,2026-07-11T17:51:22.376736,15.27579597,.0001468,43.0020,337.8190,259.8049,100.2637,0,U,59533,999,12514,.35010646E-4,.701E-5,0
STARLINK-31734,2024-074A,2026-07-11T11:43:07.584672,15.27578053,.00015019,43.0026,353.4796,250.4858,109.5831,0,U,59534,999,12507,-.1090454E-4,-.562E-5,0
STARLINK-31738,2024-074B,2026-07-11T12:07:37.742016,15.27577548,.00006945,43.0039,0.4499,245.9724,114.1055,0,U,59535,999,12499,.15980965E-4,.178E-5,0
STARLINK-31721,2024-074C,2026-07-11T12:10:40.657728,15.27568943,.00019786,43.0056,4.0125,297.2702,62.7948,0,U,59536,999,12495,-.6609923E-5,-.444E-5,0
STARLINK-31737,2024-074D,2026-07-11T10:56:50.681760,15.27573597,.00014521,43.0066,4.4834,245.4484,114.6216,0,U,59537,999,12494,-.3641477E-5,-.362E-5,0
STARLINK-31539,2024-074F,2026-07-11T11:13:32.265120,15.27539347,.00014135,43.0080,4.5730,246.1631,113.9072,0,U,59539,999,12494,.51385436E-4,.115E-4,0
STARLINK-31397,2024-074G,2026-07-09T20:19:55.591680,15.27588463,.00015132,43.0040,13.9058,247.5627,112.5065,0,U,59540,999,12469,.64018066E-4,.15E-4,0
STARLINK-31481,2024-074H,2026-07-11T11:50:17.789280,15.27577507,.00014182,43.0012,3.9052,270.0451,90.0239,0,U,59541,999,12495,.15811074E-4,.173E-5,0
STARLINK-31540,2024-074J,2026-07-08T13:39:10.004256,15.27569960,.00013659,43.0034,20.6516,282.9174,77.1525,0,U,59542,999,12450,-.14418077E-4,-.659E-5,0
STARLINK-31574,2024-074K,2026-07-11T11:19:02.703648,15.27574090,.00015458,43.0043,4.5997,266.1540,93.9135,0,U,59543,999,12494,-.35716589E-4,-.1245E-4,0
STARLINK-31556,2024-074L,2026-07-10T19:41:11.409216,15.27579297,.00014374,43.0057,8.3158,268.5296,91.5391,0,U,59544,999,12484,.31095534E-4,.594E-5,0
STARLINK-31582,2024-074M,2026-07-11T11:39:24.054912,15.27578958,.00016726,43.0033,4.7006,269.2538,90.8122,0,U,59545,999,12494,.23137478E-4,.374E-5,0
STARLINK-31519,2024-074N,2026-07-11T11:59:32.536032,15.27572857,.0001058,43.0014,3.9515,249.1270,110.9469,0,U,59546,999,12495,.21120172E-4,.319E-5,0
STARLINK-31736,2024-074P,2026-07-11T11:01:56.514432,15.27577042,.00018929,43.0093,357.5820,257.2724,102.7916,0,U,59547,999,12502,-.8105563E-5,-.486E-5,0
STARLINK-31675,2024-074Q,2026-07-11T18:00:02.000160,15.27569207,.00013188,43.0026,2.7401,263.4483,310.0213,0,U,59548,999,578,.12013858E-3,.3044E-4,0
STARLINK-31722,2024-074R,2026-07-11T11:54:00.045504,15.27579088,.00011135,43.0011,3.9217,268.4089,91.6635,0,U,59549,999,12495,.31629872E-4,.608E-5,0
STARLINK-31741,2024-074S,2026-07-10T08:00:03.000384,15.27566860,.00012155,43.0013,10.5891,284.0011,113.4358,0,U,59550,999,582,.10917614E-2,.2989E-3,0
STARLINK-31699,2024-074T,2026-07-10T19:09:43.593408,15.27578506,.00016234,43.0029,8.1414,235.2258,124.8441,0,U,59551,999,12484,.1361058E-5,-.225E-5,0
STARLINK-31750,2024-074U,2026-07-09T23:02:21.767424,15.27574053,.00008667,43.0039,13.0357,284.8786,75.1969,0,U,59552,999,12471,.56509395E-4,.1293E-4,0
